ORBCOMM FM103 [+]       
1 40091U 14040F   24051.50772340  .00001197  00000+0  30504-3 0  9995
2 40091  47.0054 133.9739 0002732 237.7900 122.2720 14.56317599493702
ORBCOMM FM114 [+]       
1 41179U 15081A   24051.67922675  .00001259  00000+0  31883-3 0  9995
2 41179  47.0040  42.4761 0002574 291.4657  68.5953 14.56323025434092
ORBCOMM FM119 [-]       
1 41180U 15081B   24051.85388951  .00001108  00000+0  28527-3 0  9994
2 41180  47.0015 310.8449 0001559 342.5096  17.5735 14.56310398435371
ORBCOMM FM105 [-]       
1 41181U 15081C   24051.71352621  .00000513  00000+0  19345-3 0  9992
2 41181  47.0004 271.1631 0002146 310.2544  49.8148 14.44240655430988
ORBCOMM FM110 [+]       
1 41182U 15081D   24051.93070318  .00001456  00000+0  36274-3 0  9994
2 41182  47.0029  40.7055 0000729 129.3729 230.7220 14.56328064434008
ORBCOMM FM118 [+]       
1 41183U 15081E   24051.70217185  .00001489  00000+0  37011-3 0  9991
2 41183  47.0052  42.0713 0000846 121.2246 238.8721 14.56327122434072
ORBCOMM FM112 [+]       
1 41184U 15081F   24051.62599840  .00001584  00000+0  39140-3 0  9995
2 41184  46.9990 311.1538 0001538 327.0397  33.0392 14.56335275435280
ORBCOMM FM113 [+]       
1 41185U 15081G   24051.80886786  .00001442  00000+0  35972-3 0  9996
2 41185  47.0010 310.5449 0001077 342.5546  17.5302 14.56315633435291
